[{"OBJECT_NAME":"STARLINK-3238","OBJECT_ID":"2021-115L","EPOCH":"2025-11-28T01:19:55.604352","MEAN_MOTION":15.0884256,"ECCENTRICITY":0.0001292,"INCLINATION":53.2148,"RA_OF_ASC_NODE":245.3998,"ARG_OF_PERICENTER":88.5182,"MEAN_ANOMALY":271.5958,"EPHEMERIS_TYPE":0,"CLASSIFICATION_TYPE":"U","NORAD_CAT_ID":49734,"ELEMENT_SET_NO":999,"REV_AT_EPOCH":22019,"BSTAR":0.00022926,"MEAN_MOTION_DOT":3.363e-5,"MEAN_MOTION_DDOT":0},{"OBJECT_NAME":"STARLINK-3113","OBJECT_ID":"2021-115M","EPOCH":"2025-11-28T03:52:15.557088","MEAN_MOTION":15.08831269,"ECCENTRICITY":0.0001358,"INCLINATION":53.2168,"RA_OF_ASC_NODE":254.7862,"ARG_OF_PERICENTER":97.708,"MEAN_ANOMALY":262.4066,"EPHEMERIS_TYPE":0,"CLASSIFICATION_TYPE":"U","NORAD_CAT_ID":49735,"ELEMENT_SET_NO":999,"REV_AT_EPOCH":22006,"BSTAR":4.1648e-5,"MEAN_MOTION_DOT":3.75e-6,"MEAN_MOTION_DDOT":0},{"OBJECT_NAME":"STARLINK-3148","OBJECT_ID":"2021-115N","EPOCH":"2025-11-28T04:25:22.827936","MEAN_MOTION":15.08838151,"ECCENTRICITY":0.0002861,"INCLINATION":53.2164,"RA_OF_ASC_NODE":244.6794,"ARG_OF_PERICENTER":96.2231,"MEAN_ANOMALY":263.9087,"EPHEMERIS_TYPE":0,"CLASSIFICATION_TYPE":"U","NORAD_CAT_ID":49736,"ELEMENT_SET_NO":999,"REV_AT_EPOCH":22021,"BSTAR":-2.1728e-5,"MEAN_MOTION_DOT":-6.34e-6,"MEAN_MOTION_DDOT":0},{"OBJECT_NAME":"STARLINK-3225","OBJECT_ID":"2021-115P","EPOCH":"2025-11-28T01:25:12.881568","MEAN_MOTION":15.0883859,"ECCENTRICITY":0.0001446,"INCLINATION":53.2175,"RA_OF_ASC_NODE":245.3574,"ARG_OF_PERICENTER":85.6271,"MEAN_ANOMALY":274.4886,"EPHEMERIS_TYPE":0,"CLASSIFICATION_TYPE":"U","NORAD_CAT_ID":49737,"ELEMENT_SET_NO":999,"REV_AT_EPOCH":22019,"BSTAR":5.8369e-5,"MEAN_MOTION_DOT":6.41e-6,"MEAN_MOTION_DDOT":0},{"OBJECT_NAME":"STARLINK-3143","OBJECT_ID":"2021-115Q","EPOCH":"2025-11-28T02:03:43.951104","MEAN_MOTION":15.08849226,"ECCENTRICITY":0.0001411,"INCLINATION":53.2169,"RA_OF_ASC_NODE":245.4441,"ARG_OF_PERICENTER":85.3965,"MEAN_ANOMALY":274.7189,"EPHEMERIS_TYPE":0,"CLASSIFICATION_TYPE":"U","NORAD_CAT_ID":49738,"ELEMENT_SET_NO":999,"REV_AT_EPOCH":22019,"BSTAR":0.00014574,"MEAN_MOTION_DOT":2.033e-5,"MEAN_MOTION_DDOT":0},{"OBJECT_NAME":"STARLINK-3155","OBJECT_ID":"2021-115R","EPOCH":"2025-11-28T04:18:45.122688","MEAN_MOTION":15.08834773,"ECCENTRICITY":0.0001514,"INCLINATION":53.2149,"RA_OF_ASC_NODE":254.8146,"ARG_OF_PERICENTER":86.2499,"MEAN_ANOMALY":273.8666,"EPHEMERIS_TYPE":0,"CLASSIFICATION_TYPE":"U","NORAD_CAT_ID":49739,"ELEMENT_SET_NO":999,"REV_AT_EPOCH":22006,"BSTAR":-4.7358e-5,"MEAN_MOTION_DOT":-1.041e-5,"MEAN_MOTION_DDOT":0},{"OBJECT_NAME":"STARLINK-3226","OBJECT_ID":"2021-115S","EPOCH":"2025-11-28T03:23:10.538016","MEAN_MOTION":15.08839684,"ECCENTRICITY":0.0001442,"INCLINATION":53.2174,"RA_OF_ASC_NODE":244.9632,"ARG_OF_PERICENTER":99.886,"MEAN_ANOMALY":260.2295,"EPHEMERIS_TYPE":0,"CLASSIFICATION_TYPE":"U","NORAD_CAT_ID":49740,"ELEMENT_SET_NO":999,"REV_AT_EPOCH":22020,"BSTAR":0.00013192,"MEAN_MOTION_DOT":1.812e-5,"MEAN_MOTION_DDOT":0},{"OBJECT_NAME":"STARLINK-3244","OBJECT_ID":"2021-115T","EPOCH":"2025-11-28T01:42:30.032352","MEAN_MOTION":15.08830357,"ECCENTRICITY":0.0001822,"INCLINATION":53.2175,"RA_OF_ASC_NODE":245.3186,"ARG_OF_PERICENTER":101.6029,"MEAN_ANOMALY":258.5168,"EPHEMERIS_TYPE":0,"CLASSIFICATION_TYPE":"U","NORAD_CAT_ID":49741,"ELEMENT_SET_NO":999,"REV_AT_EPOCH":22019,"BSTAR":-3.9661e-5,"MEAN_MOTION_DOT":-9.19e-6,"MEAN_MOTION_DDOT":0},{"OBJECT_NAME":"STARLINK-3202","OBJECT_ID":"2021-115U","EPOCH":"2025-11-28T03:37:41.977056","MEAN_MOTION":15.08842972,"ECCENTRICITY":0.0001585,"INCLINATION":53.2183,"RA_OF_ASC_NODE":244.9459,"ARG_OF_PERICENTER":90.5297,"MEAN_ANOMALY":269.5877,"EPHEMERIS_TYPE":0,"CLASSIFICATION_TYPE":"U","NORAD_CAT_ID":49742,"ELEMENT_SET_NO":999,"REV_AT_EPOCH":22020,"BSTAR":0.0001237,"MEAN_MOTION_DOT":1.681e-5,"MEAN_MOTION_DDOT":0},{"OBJECT_NAME":"STARLINK-3239","OBJECT_ID":"2021-115V","EPOCH":"2025-11-28T01:37:11.093664","MEAN_MOTION":15.08837234,"ECCENTRICITY":0.0001558,"INCLINATION":53.2176,"RA_OF_ASC_NODE":245.2549,"ARG_OF_PERICENTER":92.9218,"MEAN_ANOMALY":267.1952,"EPHEMERIS_TYPE":0,"CLASSIFICATION_TYPE":"U","NORAD_CAT_ID":49743,"ELEMENT_SET_NO":999,"REV_AT_EPOCH":22019,"BSTAR":7.6596e-5,"MEAN_MOTION_DOT":9.31e-6,"MEAN_MOTION_DDOT":0},{"OBJECT_NAME":"STARLINK-3231","OBJECT_ID":"2021-115W","EPOCH":"2025-11-28T03:33:45.655776","MEAN_MOTION":15.08841157,"ECCENTRICITY":0.0001507,"INCLINATION":53.2174,"RA_OF_ASC_NODE":244.8495,"ARG_OF_PERICENTER":88.6815,"MEAN_ANOMALY":271.4349,"EPHEMERIS_TYPE":0,"CLASSIFICATION_TYPE":"U","NORAD_CAT_ID":49744,"ELEMENT_SET_NO":999,"REV_AT_EPOCH":22020,"BSTAR":0.00011364,"MEAN_MOTION_DOT":1.521e-5,"MEAN_MOTION_DDOT":0},{"OBJECT_NAME":"STARLINK-3241","OBJECT_ID":"2021-115X","EPOCH":"2025-11-28T03:28:27.384096","MEAN_MOTION":15.08854487,"ECCENTRICITY":0.0001611,"INCLINATION":53.2184,"RA_OF_ASC_NODE":244.9449,"ARG_OF_PERICENTER":86.0446,"MEAN_ANOMALY":274.073,"EPHEMERIS_TYPE":0,"CLASSIFICATION_TYPE":"U","NORAD_CAT_ID":49745,"ELEMENT_SET_NO":999,"REV_AT_EPOCH":22020,"BSTAR":0.00023721,"MEAN_MOTION_DOT":3.491e-5,"MEAN_MOTION_DDOT":0},{"OBJECT_NAME":"STARLINK-3233","OBJECT_ID":"2021-115Y","EPOCH":"2025-11-28T00:48:07.940736","MEAN_MOTION":15.08826225,"ECCENTRICITY":0.0001417,"INCLINATION":53.2164,"RA_OF_ASC_NODE":245.4716,"ARG_OF_PERICENTER":87.2175,"MEAN_ANOMALY":272.8979,"EPHEMERIS_TYPE":0,"CLASSIFICATION_TYPE":"U","NORAD_CAT_ID":49746,"ELEMENT_SET_NO":999,"REV_AT_EPOCH":22018,"BSTAR":0.00035721,"MEAN_MOTION_DOT":5.4e-5,"MEAN_MOTION_DDOT":0},{"OBJECT_NAME":"STARLINK-3247","OBJECT_ID":"2021-115Z","EPOCH":"2025-11-28T02:07:36.907104","MEAN_MOTION":15.08840764,"ECCENTRICITY":0.0001371,"INCLINATION":53.2177,"RA_OF_ASC_NODE":245.2257,"ARG_OF_PERICENTER":81.2994,"MEAN_ANOMALY":278.8153,"EPHEMERIS_TYPE":0,"CLASSIFICATION_TYPE":"U","NORAD_CAT_ID":49747,"ELEMENT_SET_NO":999,"REV_AT_EPOCH":22019,"BSTAR":3.1117e-5,"MEAN_MOTION_DOT":2.07e-6,"MEAN_MOTION_DDOT":0},{"OBJECT_NAME":"STARLINK-3248","OBJECT_ID":"2021-115AA","EPOCH":"2025-11-28T01:35:44.343744","MEAN_MOTION":15.08839785,"ECCENTRICITY":0.0001577,"INCLINATION":53.2177,"RA_OF_ASC_NODE":244.9001,"ARG_OF_PERICENTER":85.3636,"MEAN_ANOMALY":274.7536,"EPHEMERIS_TYPE":0,"CLASSIFICATION_TYPE":"U","NORAD_CAT_ID":49748,"ELEMENT_SET_NO":999,"REV_AT_EPOCH":22020,"BSTAR":0.00010347,"MEAN_MOTION_DOT":1.359e-5,"MEAN_MOTION_DDOT":0},{"OBJECT_NAME":"STARLINK-3250","OBJECT_ID":"2021-115AB","EPOCH":"2025-11-28T01:16:02.572320","MEAN_MOTION":15.08835328,"ECCENTRICITY":0.0001681,"INCLINATION":53.217,"RA_OF_ASC_NODE":245.6253,"ARG_OF_PERICENTER":84.9484,"MEAN_ANOMALY":275.17,"EPHEMERIS_TYPE":0,"CLASSIFICATION_TYPE":"U","NORAD_CAT_ID":49749,"ELEMENT_SET_NO":999,"REV_AT_EPOCH":22018,"BSTAR":0.00010731,"MEAN_MOTION_DOT":1.42e-5,"MEAN_MOTION_DDOT":0},{"OBJECT_NAME":"STARLINK-3236","OBJECT_ID":"2021-115AC","EPOCH":"2025-11-28T01:10:42.118176","MEAN_MOTION":15.08843786,"ECCENTRICITY":0.0001798,"INCLINATION":53.2168,"RA_OF_ASC_NODE":245.4122,"ARG_OF_PERICENTER":88.7376,"MEAN_ANOMALY":271.3822,"EPHEMERIS_TYPE":0,"CLASSIFICATION_TYPE":"U","NORAD_CAT_ID":49750,"ELEMENT_SET_NO":999,"REV_AT_EPOCH":22019,"BSTAR":0.00033588,"MEAN_MOTION_DOT":5.062e-5,"MEAN_MOTION_DDOT":0}]
