STARLINK-3238           
1 49734U 21115L   25332.05550468  .00003363  00000+0  22926-3 0  9993
2 49734  53.2148 245.3998 0001292  88.5182 271.5958 15.08842560220198
STARLINK-3113           
1 49735U 21115M   25332.16129117  .00000375  00000+0  41648-4 0  9992
2 49735  53.2168 254.7862 0001358  97.7080 262.4066 15.08831269220066
STARLINK-3148           
1 49736U 21115N   25332.18429199 -.00000634  00000+0 -21728-4 0  9995
2 49736  53.2164 244.6794 0002861  96.2231 263.9087 15.08838151220210
STARLINK-3225           
1 49737U 21115P   25332.05917687  .00000641  00000+0  58369-4 0  9993
2 49737  53.2175 245.3574 0001446  85.6271 274.4886 15.08838590220199
STARLINK-3143           
1 49738U 21115Q   25332.08592536  .00002033  00000+0  14574-3 0  9995
2 49738  53.2169 245.4441 0001411  85.3965 274.7189 15.08849226220193
STARLINK-3155           
1 49739U 21115R   25332.17968892 -.00001041  00000+0 -47358-4 0  9995
2 49739  53.2149 254.8146 0001514  86.2499 273.8666 15.08834773220061
STARLINK-3226           
1 49740U 21115S   25332.14109419  .00001812  00000+0  13192-3 0  9998
2 49740  53.2174 244.9632 0001442  99.8860 260.2295 15.08839684220203
STARLINK-3244           
1 49741U 21115T   25332.07118093 -.00000919  00000+0 -39661-4 0  9998
2 49741  53.2175 245.3186 0001822 101.6029 258.5168 15.08830357220190
STARLINK-3202           
1 49742U 21115U   25332.15118029  .00001681  00000+0  12370-3 0  9999
2 49742  53.2183 244.9459 0001585  90.5297 269.5877 15.08842972220204
STARLINK-3239           
1 49743U 21115V   25332.06748951  .00000931  00000+0  76596-4 0  9991
2 49743  53.2176 245.2549 0001558  92.9218 267.1952 15.08837234220191
STARLINK-3231           
1 49744U 21115W   25332.14844509  .00001521  00000+0  11364-3 0  9994
2 49744  53.2174 244.8495 0001507  88.6815 271.4349 15.08841157220203
STARLINK-3241           
1 49745U 21115X   25332.14476139  .00003491  00000+0  23721-3 0  9993
2 49745  53.2184 244.9449 0001611  86.0446 274.0730 15.08854487220206
STARLINK-3233           
1 49746U 21115Y   25332.03342524  .00005400  00000+0  35721-3 0  9997
2 49746  53.2164 245.4716 0001417  87.2175 272.8979 15.08826225220181
STARLINK-3247           
1 49747U 21115Z   25332.08862161  .00000207  00000+0  31117-4 0  9993
2 49747  53.2177 245.2257 0001371  81.2994 278.8153 15.08840764220191
STARLINK-3248           
1 49748U 21115AA  25332.06648546  .00001359  00000+0  10347-3 0  9991
2 49748  53.2177 244.9001 0001577  85.3636 274.7536 15.08839785220204
STARLINK-3250           
1 49749U 21115AB  25332.05280755  .00001420  00000+0  10731-3 0  9991
2 49749  53.2170 245.6253 0001681  84.9484 275.1700 15.08835328220181
STARLINK-3236           
1 49750U 21115AC  25332.04909859  .00005062  00000+0  33588-3 0  9996
2 49750  53.2168 245.4122 0001798  88.7376 271.3822 15.08843786220195
